[
  {
    "OBJECT_NAME": "STARLINK-34880",
    "OBJECT_ID": "25189E",
    "EPOCH": "2025-11-10T15:06:19.365120",
    "MEAN_MOTION": 15.39632434,
    "ECCENTRICITY": 0.0001523,
    "INCLINATION": 53.1596,
    "RA_OF_ASC_NODE": 40.0953,
    "ARG_OF_PERICENTER": 123.9782,
    "MEAN_ANOMALY": 236.1367,
    "EPHEMERIS_TYPE": 0,
    "CLASSIFICATION_TYPE": "U",
    "NORAD_CAT_ID": 65327,
    "ELEMENT_SET_NO": 999,
    "REV_AT_EPOCH": 1287,
    "BSTAR": 0.0013633999999999999,
    "MEAN_MOTION_DOT": 0.00054551,
    "MEAN_MOTION_DDOT": 0.0,
    "TLE_LINE1": "1 65327U 25189E   25314.62939080  .00054551  00000+0  13634-2 0  9998",
    "TLE_LINE2": "2 65327  53.1596  40.0953 0001523 123.9782 236.1367 15.39632434 12874",
    "COMMENT": "Grouped by shell and plane from TLE"
  },
  {
    "OBJECT_NAME": "STARLINK-35020",
    "OBJECT_ID": "25189T",
    "EPOCH": "2025-11-09T16:04:35.529024",
    "MEAN_MOTION": 15.39587118,
    "ECCENTRICITY": 0.0002008,
    "INCLINATION": 53.1611,
    "RA_OF_ASC_NODE": 44.0533,
    "ARG_OF_PERICENTER": 30.3916,
    "MEAN_ANOMALY": 329.7205,
    "EPHEMERIS_TYPE": 0,
    "CLASSIFICATION_TYPE": "U",
    "NORAD_CAT_ID": 65340,
    "ELEMENT_SET_NO": 999,
    "REV_AT_EPOCH": 1268,
    "BSTAR": 0.0021753000000000002,
    "MEAN_MOTION_DOT": 0.00087523,
    "MEAN_MOTION_DDOT": 0.0,
    "TLE_LINE1": "1 65340U 25189T   25313.66985566  .00087523  00000+0  21753-2 0  9992",
    "TLE_LINE2": "2 65340  53.1611  44.0533 0002008  30.3916 329.7205 15.39587118 12681",
    "COMMENT": "Grouped by shell and plane from TLE"
  }
]